{"type": "FeatureCollection", "features": [ {"type": "Feature", "properties": {"norad_id": 43107, "name": "BEIDOU-3 M7 (C27)", "group": "gnss", "lat": -34.47181164884424, "lon": -80.80315515511815, "alt_km": 21535.24539515158, "timestamp": "2025-12-20T11:30:28.620533+00:00", "meta": {"OBJECT_NAME": "BEIDOU-3 M7 (C27)", "OBJECT_ID": "2018-003A", "EPOCH": "2025-12-20T00:11:53.291616", "MEAN_MOTION": 1.86232576, "ECCENTRICITY": 0.0002905, "INCLINATION": 54.4901, "RA_OF_ASC_NODE": 308.5614, "ARG_OF_PERICENTER": 68.4199, "MEAN_ANOMALY": 291.6021, "EPHEMERIS_TYPE": 0, "CLASSIFICATION_TYPE": "U", "NORAD_CAT_ID": 43107, "ELEMENT_SET_NO": 999, "REV_AT_EPOCH": 5401, "BSTAR": 0, "MEAN_MOTION_DOT": -7.3e-07, "MEAN_MOTION_DDOT": 0}, "tle": {"line1": "1 43107U 18003A   25354.00825569 -.00000073  00000+0  00000+0 0  9990", "line2": "2 43107  54.4901 308.5614 0002905  68.4199 291.6021  1.86232576 54011"}}, "geometry": {"type": "Point", "coordinates": [-80.80315515511815, -34.47181164884424]}}, {"type": "Feature", "properties": {"norad_id": 43108, "name": "BEIDOU-3 M8 (C28)", "group": "gnss", "lat": -5.820263580492667, "lon": -55.66696214772331, "alt_km": 21525.778036794844, "timestamp": "2025-12-20T11:30:28.620550+00:00", "meta": {"OBJECT_NAME": "BEIDOU-3 M8 (C28)", "OBJECT_ID": "2018-003B", "EPOCH": "2025-12-19T22:52:37.824384", "MEAN_MOTION": 1.86231114, "ECCENTRICITY": 0.0004576, "INCLINATION": 54.4832, "RA_OF_ASC_NODE": 308.5462, "ARG_OF_PERICENTER": 277.5599, "MEAN_ANOMALY": 82.379, "EPHEMERIS_TYPE": 0, "CLASSIFICATION_TYPE": "U", "NORAD_CAT_ID": 43108, "ELEMENT_SET_NO": 999, "REV_AT_EPOCH": 5402, "BSTAR": 0, "MEAN_MOTION_DOT": -7.3e-07, "MEAN_MOTION_DDOT": 0}, "tle": {"line1": "1 43108U 18003B   25353.95321556 -.00000073  00000+0  00000+0 0  9991", "line2": "2 43108  54.4832 308.5462 0004576 277.5599  82.3790  1.86231114 54025"}}, "geometry": {"type": "Point", "coordinates": [-55.66696214772331, -5.820263580492667]}}, {"type": "Feature", "properties": {"norad_id": 43207, "name": "BEIDOU-3 M4 (C22)", "group": "gnss", "lat": 44.102930555857185, "lon": 108.93885644847023, "alt_km": 21515.330665319863, "timestamp": "2025-12-20T11:30:28.620567+00:00", "meta": {"OBJECT_NAME": "BEIDOU-3 M4 (C22)", "OBJECT_ID": "2018-018A", "EPOCH": "2025-12-18T05:56:14.155584", "MEAN_MOTION": 1.86231297, "ECCENTRICITY": 0.0004163, "INCLINATION": 56.4903, "RA_OF_ASC_NODE": 69.1221, "ARG_OF_PERICENTER": 6.0826, "MEAN_ANOMALY": 353.9513, "EPHEMERIS_TYPE": 0, "CLASSIFICATION_TYPE": "U", "NORAD_CAT_ID": 43207, "ELEMENT_SET_NO": 999, "REV_AT_EPOCH": 5337, "BSTAR": 0, "MEAN_MOTION_DOT": -6.5e-07, "MEAN_MOTION_DDOT": 0}, "tle": {"line1": "1 43207U 18018A   25352.24738606 -.00000065  00000+0  00000+0 0  9997", "line2": "2 43207  56.4903  69.1221 0004163   6.0826 353.9513  1.86231297 53378"}}, "geometry": {"type": "Point", "coordinates": [108.93885644847023, 44.102930555857185]}}, {"type": "Feature", "properties": {"norad_id": 43208, "name": "BEIDOU-3 M3 (C21)", "group": "gnss", "lat": 9.922978649371133, "lon": 75.71524623014098, "alt_km": 21516.668201112432, "timestamp": "2025-12-20T11:30:28.620585+00:00", "meta": {"OBJECT_NAME": "BEIDOU-3 M3 (C21)", "OBJECT_ID": "2018-018B", "EPOCH": "2025-12-19T09:18:26.987040", "MEAN_MOTION": 1.8623146, "ECCENTRICITY": 0.0007021, "INCLINATION": 56.4904, "RA_OF_ASC_NODE": 69.0885, "ARG_OF_PERICENTER": 313.7803, "MEAN_ANOMALY": 46.1968, "EPHEMERIS_TYPE": 0, "CLASSIFICATION_TYPE": "U", "NORAD_CAT_ID": 43208, "ELEMENT_SET_NO": 999, "REV_AT_EPOCH": 5339, "BSTAR": 0, "MEAN_MOTION_DOT": -5.3e-07, "MEAN_MOTION_DDOT": 0}, "tle": {"line1": "1 43208U 18018B   25353.38781235 -.00000053  00000+0  00000+0 0  9997", "line2": "2 43208  56.4904  69.0885 0007021 313.7803  46.1968  1.86231460 53393"}}, "geometry": {"type": "Point", "coordinates": [75.71524623014098, 9.922978649371133]}}, {"type": "Feature", "properties": {"norad_id": 43245, "name": "BEIDOU-3 M9 (C29)", "group": "gnss", "lat": -36.43260190190008, "lon": 158.1163473046463, "alt_km": 21530.868864065218, "timestamp": "2025-12-20T11:30:28.620602+00:00", "meta": {"OBJECT_NAME": "BEIDOU-3 M9 (C29)", "OBJECT_ID": "2018-029A", "EPOCH": "2025-12-19T14:29:50.131680", "MEAN_MOTION": 1.86228397, "ECCENTRICITY": 0.00015252, "INCLINATION": 54.3596, "RA_OF_ASC_NODE": 306.2287, "ARG_OF_PERICENTER": 290.8433, "MEAN_ANOMALY": 69.1316, "EPHEMERIS_TYPE": 0, "CLASSIFICATION_TYPE": "U", "NORAD_CAT_ID": 43245, "ELEMENT_SET_NO": 999, "REV_AT_EPOCH": 5255, "BSTAR": 0, "MEAN_MOTION_DOT": -7.4e-07, "MEAN_MOTION_DDOT": 0}, "tle": {"line1": "1 43245U 18029A   25353.60405245 -.00000074  00000+0  00000+0 0  9992", "line2": "2 43245  54.3596 306.2287 0001525 290.8433  69.1316  1.86228397 52551"}}, "geometry": {"type": "Point", "coordinates": [158.1163473046463, -36.43260190190008]}}, {"type": "Feature", "properties": {"norad_id": 43246, "name": "BEIDOU-3 M10 (C30)", "group": "gnss", "lat": -54.36448780141334, "lon": -143.21238392211723, "alt_km": 21534.663604005265, "timestamp": "2025-12-20T11:30:28.620622+00:00", "meta": {"OBJECT_NAME": "BEIDOU-3 M10 (C30)", "OBJECT_ID": "2018-029B", "EPOCH": "2025-12-20T01:49:46.851744", "MEAN_MOTION": 1.86229182, "ECCENTRICITY": 0.0004242, "INCLINATION": 54.356, "RA_OF_ASC_NODE": 306.2386, "ARG_OF_PERICENTER": 3.4492, "MEAN_ANOMALY": 356.5463, "EPHEMERIS_TYPE": 0, "CLASSIFICATION_TYPE": "U", "NORAD_CAT_ID": 43246, "ELEMENT_SET_NO": 999, "REV_AT_EPOCH": 5254, "BSTAR": 0, "MEAN_MOTION_DOT": -7e-07, "MEAN_MOTION_DDOT": 0}, "tle": {"line1": "1 43246U 18029B   25354.07623671 -.00000070  00000+0  00000+0 0  9996", "line2": "2 43246  54.3560 306.2386 0004242   3.4492 356.5463  1.86229182 52543"}}, "geometry": {"type": "Point", "coordinates": [-143.21238392211723, -54.36448780141334]}}, {"type": "Feature", "properties": {"norad_id": 43286, "name": "IRNSS-1I", "group": "gnss", "lat": -25.046220514334298, "lon": -46.29812668779156, "alt_km": 35739.04192699063, "timestamp": "2025-12-20T11:30:28.620639+00:00", "meta": {"OBJECT_NAME": "IRNSS-1I", "OBJECT_ID": "2018-035A", "EPOCH": "2025-12-14T19:56:38.641056", "MEAN_MOTION": 1.00272129, "ECCENTRICITY": 0.00217173, "INCLINATION": 29.1546, "RA_OF_ASC_NODE": 77.0653, "ARG_OF_PERICENTER": 182.6132, "MEAN_ANOMALY": 178.227, "EPHEMERIS_TYPE": 0, "CLASSIFICATION_TYPE": "U", "NORAD_CAT_ID": 43286, "ELEMENT_SET_NO": 999, "REV_AT_EPOCH": 2823, "BSTAR": 0, "MEAN_MOTION_DOT": 8.4e-07, "MEAN_MOTION_DDOT": 0}, "tle": {"line1": "1 43286U 18035A   25348.83100279  .00000084  00000+0  00000+0 0  9992", "line2": "2 43286  29.1546  77.0653 0021717 182.6132 178.2270  1.00272129 28237"}}, "geometry": {"type": "Point", "coordinates": [-46.29812668779156, -25.046220514334298]}}, {"type": "Feature", "properties": {"norad_id": 43508, "name": "COSMOS 2527 (756)", "group": "gnss", "lat": 35.33772024159264, "lon": -118.96519216606806, "alt_km": 19124.30228367336, "timestamp": "2025-12-20T11:30:28.620658+00:00", "meta": {"OBJECT_NAME": "COSMOS 2527 (756)", "OBJECT_ID": "2018-053A", "EPOCH": "2025-12-18T21:19:14.310912", "MEAN_MOTION": 2.13102316, "ECCENTRICITY": 0.0008836, "INCLINATION": 65.4759, "RA_OF_ASC_NODE": 79.9259, "ARG_OF_PERICENTER": 226.7635, "MEAN_ANOMALY": 133.1863, "EPHEMERIS_TYPE": 0, "CLASSIFICATION_TYPE": "U", "NORAD_CAT_ID": 43508, "ELEMENT_SET_NO": 999, "REV_AT_EPOCH": 5843, "BSTAR": 0, "MEAN_MOTION_DOT": -3.3e-07, "MEAN_MOTION_DDOT": 0}, "tle": {"line1": "1 43508U 18053A   25352.88836008 -.00000033  00000+0  00000+0 0  9990", "line2": "2 43508  65.4759  79.9259 0008836 226.7635 133.1863  2.13102316 58439"}}, "geometry": {"type": "Point", "coordinates": [-118.96519216606806, 35.33772024159264]}}, {"type": "Feature", "properties": {"norad_id": 43539, "name": "BEIDOU-2 IGSO-7 (C16)", "group": "gnss", "lat": -22.105426658956322, "lon": 1.0402404907421638, "alt_km": 35448.48476780716, "timestamp": "2025-12-20T11:30:28.620675+00:00", "meta": {"OBJECT_NAME": "BEIDOU-2 IGSO-7 (C16)", "OBJECT_ID": "2018-057A", "EPOCH": "2025-12-15T07:47:07.120608", "MEAN_MOTION": 1.00256546, "ECCENTRICITY": 0.00926218, "INCLINATION": 55.1766, "RA_OF_ASC_NODE": 164.6485, "ARG_OF_PERICENTER": 235.2644, "MEAN_ANOMALY": 271.8458, "EPHEMERIS_TYPE": 0, "CLASSIFICATION_TYPE": "U", "NORAD_CAT_ID": 43539, "ELEMENT_SET_NO": 999, "REV_AT_EPOCH": 2728, "BSTAR": 0, "MEAN_MOTION_DOT": -2.3e-07, "MEAN_MOTION_DDOT": 0}, "tle": {"line1": "1 43539U 18057A   25349.32438797 -.00000023  00000+0  00000+0 0  9995", "line2": "2 43539  55.1766 164.6485 0092621 235.2644 271.8458  1.00256546 27289"}}, "geometry": {"type": "Point", "coordinates": [1.0402404907421638, -22.105426658956322]}}, {"type": "Feature", "properties": {"norad_id": 43564, "name": "GSAT0221 (GALILEO 25)", "group": "gnss", "lat": -15.232320228178086, "lon": 176.70460457656068, "alt_km": 23223.29497303597, "timestamp": "2025-12-20T11:30:28.620697+00:00", "meta": {"OBJECT_NAME": "GSAT0221 (GALILEO 25)", "OBJECT_ID": "2018-060A", "EPOCH": "2025-12-19T13:40:28.820064", "MEAN_MOTION": 1.70475889, "ECCENTRICITY": 0.0006721, "INCLINATION": 57.2264, "RA_OF_ASC_NODE": 346.6332, "ARG_OF_PERICENTER": 285.6827, "MEAN_ANOMALY": 74.2548, "EPHEMERIS_TYPE": 0, "CLASSIFICATION_TYPE": "U", "NORAD_CAT_ID": 43564, "ELEMENT_SET_NO": 999, "REV_AT_EPOCH": 4610, "BSTAR": 0, "MEAN_MOTION_DOT": -7.2e-07, "MEAN_MOTION_DDOT": 0}, "tle": {"line1": "1 43564U 18060A   25353.56977801 -.00000072  00000+0  00000+0 0  9996", "line2": "2 43564  57.2264 346.6332 0006721 285.6827  74.2548  1.70475889 46101"}}, "geometry": {"type": "Point", "coordinates": [176.70460457656068, -15.232320228178086]}}]}